FENGYUN 1C DEB          
1 31237U 99025BLT 17345.58053519  .00000231  00000-0  11202-3 0  9992
2 31237  98.6455  21.1422 0096797 273.2688 240.3576 14.25084195555844
